ORBCOMM FM33 [-]        
1 25983U 99065D   24109.38773845  .00003394  00000+0  11683-2 0  9996
2 25983  45.0276 214.7518 0007086  92.4174  17.6586 14.37550048274967
ORBCOMM FM36 [-]        
1 25984U 99065E   24108.95584564  .00003232  00000+0  11635-2 0  9995
2 25984  45.0400 301.9129 0002927 318.4763  41.5862 14.35419125273856
ORBCOMM FM35 [+]        
1 25985U 99065F   24107.94698455  .00002264  00000+0  83645-3 0  9994
2 25985  45.0403 309.2463 0003209  69.6043 290.5149 14.35022990273519
ORBCOMM FM34 [-]        
1 25986U 99065G   24109.51811468  .00002616  00000+0  95938-3 0  9990
2 25986  45.0394 302.3681 0003231  19.0817 341.0151 14.34994447273898
ORBCOMM FM38 [-]        
1 33060U 08031A   24108.97780565  .00005285  00000+0  76446-3 0  9995
2 33060  48.4400 175.4969 0005447   8.1599 351.9403 14.77327305851780
ORBCOMM FM41 [-]        
1 33061U 08031B   24109.44326035  .00004740  00000+0  69295-3 0  9996
2 33061  48.4436 179.8611 0004811 354.4818 101.7349 14.77063149851803
ORBCOMM FM29 [-]        
1 33062U 08031C   24108.35184866  .00006235  00000+0  90382-3 0  9992
2 33062  48.4384 193.0610 0006602 351.0791 124.5181 14.76979900851117
ORBCOMM FM39 [-]        
1 33063U 08031D   24109.49862030  .00004334  00000+0  65156-3 0  9994
2 33063  48.4397 207.9852 0007715 333.0524  26.9988 14.76018809851409
